NORAD_CAT_ID,OBJECT_NAME,OBJECT_TYPE,EPOCH,MEAN_MOTION,ECCENTRICITY,INCLINATION,RA_OF_ASC_NODE,ARG_OF_PERICENTER,MEAN_ANOMALY,BSTAR,MEAN_MOTION_DOT,MEAN_MOTION_DDOT,TLE_LINE0,TLE_LINE1,TLE_LINE2,SEMIMAJOR_AXIS,PERIOD,APOGEE,PERIGEE,DECAYED
52123.0,STARLINK-3725,PAYLOAD,2023-06-26 09:05:32,15.08839217,0.0001089,53.2159,181.2654,79.4196,280.6919,1.4264e-05,-6.1e-07,0.0,0 STARLINK-3725,1 52123U 22029AM  23177.37884492 -.00000061  00000-0  14264-4 0  9992,2 52123  53.2159 181.2654 0001089  79.4196 280.6919 15.08839217 71884,6917.883,95.438,540.501,538.994,0.0
52123.0,STARLINK-3725,PAYLOAD,2023-06-27 08:56:19,15.08833981,0.0001091,53.2159,176.805,81.0081,279.1034,4.5529e-05,4.37e-06,0.0,0 STARLINK-3725,1 52123U 22029AM  23178.37245066  .00000437  00000-0  45529-4 0  9995,2 52123  53.2159 176.8050 0001091  81.0081 279.1034 15.08833981 72030,6917.899,95.438,540.519,539.009,0.0
52123.0,STARLINK-3725,PAYLOAD,2023-06-28 16:44:02,15.08839125,0.0001104,53.2163,170.8576,83.802,276.3098,7.0507e-05,8.34e-06,0.0,0 STARLINK-3725,1 52123U 22029AM  23179.69724871  .00000834  00000-0  70507-4 0  9992,2 52123  53.2163 170.8576 0001104  83.8020 276.3098 15.08839125 72237,6917.883,95.438,540.512,538.984,0.0
52123.0,STARLINK-3725,PAYLOAD,2023-07-01 01:57:55,15.08835879,0.0001199,53.2155,160.1523,85.4354,274.6775,-7.5558e-06,-4.08e-06,0.0,0 STARLINK-3725,1 52123U 22029AM  23182.08189329 -.00000408  00000-0 -75558-5 0  9993,2 52123  53.2155 160.1523 0001199  85.4354 274.6775 15.08835879 72598,6917.893,95.438,540.587,538.929,0.0
52123.0,STARLINK-3725,PAYLOAD,2023-07-02 08:10:14,15.08840853,0.0001261,53.2163,154.5023,81.7825,278.331,3.6734e-05,2.97e-06,0.0,0 STARLINK-3725,1 52123U 22029AM  23183.34045006  .00000297  00000-0  36734-4 0  9992,2 52123  53.2163 154.5023 0001261  81.7825 278.3310 15.08840853 72786,6917.878,95.438,540.615,538.87,0.0
52123.0,STARLINK-3725,PAYLOAD,2023-07-03 14:22:34,15.08835299,0.000129,53.2166,148.8525,81.3361,278.7777,2.4768e-05,1.06e-06,0.0,0 STARLINK-3725,1 52123U 22029AM  23184.59901606  .00000106  00000-0  24768-4 0  9990,2 52123  53.2166 148.8525 0001290  81.3361 278.7777 15.08835299 72975,6917.895,95.438,540.652,538.867,0.0
52123.0,STARLINK-3725,PAYLOAD,2023-07-05 01:21:04,15.08838076,0.000126,53.2171,142.3103,89.2419,270.8717,6.2171e-06,-1.89e-06,0.0,0 STARLINK-3725,1 52123U 22029AM  23186.05629820 -.00000189  00000-0  62171-5 0  9991,2 52123  53.2171 142.3103 0001260  89.2419 270.8717 15.08838076 73198,6917.886,95.438,540.623,538.88,0.0
52123.0,STARLINK-3725,PAYLOAD,2023-07-06 04:22:37,15.08839475,0.0001263,53.2172,137.255,94.2986,265.8151,6.1799e-05,6.96e-06,0.0,0 STARLINK-3725,1 52123U 22029AM  23187.18237761  .00000696  00000-0  61799-4 0  9991,2 52123  53.2172 137.2550 0001263  94.2986 265.8151 15.08839475 73365,6917.882,95.438,540.621,538.873,0.0
52123.0,STARLINK-3725,PAYLOAD,2023-07-07 05:48:47,15.08844266,0.0001228,53.2171,132.4966,91.613,268.5002,7.582e-05,9.19e-06,0.0,0 STARLINK-3725,1 52123U 22029AM  23188.24221558  .00000919  00000-0  75820-4 0  9994,2 52123  53.2171 132.4966 0001228  91.6130 268.5002 15.08844266 73522,6917.867,95.437,540.582,538.883,0.0
52123.0,STARLINK-3725,PAYLOAD,2023-07-08 13:36:30,15.08837976,0.000136,53.2184,126.5453,96.8004,263.3142,-5.9739e-06,-3.83e-06,0.0,0 STARLINK-3725,1 52123U 22029AM  23189.56702037 -.00000383  00000-0 -59739-5 0  9995,2 52123  53.2184 126.5453 0001360  96.8004 263.3142 15.08837976 73725,6917.887,95.438,540.692,538.811,0.0
52123.0,STARLINK-3725,PAYLOAD,2023-07-09 02:19:39,15.08793762,0.0001043,53.2171,124.1705,105.2619,254.8489,-0.00035773,-5.969e-05,0.0,0 STARLINK-3725,1 52123U 22029AM  23190.09698427 -.00005969  00000-0 -35773-3 0  9997,2 52123  53.2171 124.1705 0001043 105.2619 254.8489 15.08793762 73802,6918.022,95.44,540.608,539.165,0.0
52123.0,STARLINK-3725,PAYLOAD,2023-07-09 15:02:42,15.08825011,0.0001367,53.2169,121.7912,121.5121,238.6005,-6.5542e-05,-1.33e-05,0.0,0 STARLINK-3725,1 52123U 22029AM  23190.62688034 -.00001330  00000-0 -65542-4 0  9995,2 52123  53.2169 121.7912 0001367 121.5121 238.6005 15.08825011 73885,6917.926,95.439,540.737,538.846,0.0
52123.0,STARLINK-3725,PAYLOAD,2023-07-10 02:10:23,15.08838253,0.000109,53.2168,119.7116,98.1463,261.9653,5.3815e-05,5.69e-06,0.0,0 STARLINK-3725,1 52123U 22029AM  23191.09055288  .00000569  00000-0  53815-4 0  9997,2 52123  53.2168 119.7116 0001090  98.1463 261.9653 15.08838253 73956,6917.886,95.438,540.505,538.997,0.0
52123.0,STARLINK-3725,PAYLOAD,2023-07-10 11:42:42,15.08846254,0.0001047,53.2168,117.9277,96.5215,263.5896,4.8805e-05,4.89e-06,0.0,0 STARLINK-3725,1 52123U 22029AM  23191.48798814  .00000489  00000-0  48805-4 0  9993,2 52123  53.2168 117.9277 0001047  96.5215 263.5896 15.08846254 74018,6917.861,95.437,540.451,539.002,0.0
52123.0,STARLINK-3725,PAYLOAD,2023-07-11 05:11:56,15.0883124,8.8e-05,53.217,114.6566,100.2774,259.8318,0.00050222,7.712e-05,0.0,0 STARLINK-3725,1 52123U 22029AM  23192.21662659  .00007712  00000-0  50222-3 0  9993,2 52123  53.2170 114.6566 0000880 100.2774 259.8318 15.08831240 74121,6917.907,95.438,540.381,539.163,0.0
52123.0,STARLINK-3725,PAYLOAD,2023-07-11 21:05:48,15.08839927,0.0001171,53.2172,111.6833,85.6012,274.5114,5.5768e-05,6e-06,0.0,0 STARLINK-3725,1 52123U 22029AM  23192.87903669  .00000600  00000-0  55768-4 0  9994,2 52123  53.2172 111.6833 0001171  85.6012 274.5114 15.08839927 74221,6917.881,95.438,540.556,538.936,0.0
52123.0,STARLINK-3725,PAYLOAD,2023-07-12 17:45:48,15.08850053,0.0001114,53.2171,107.8181,94.8682,265.2437,1.3936e-05,-6.6e-07,0.0,0 STARLINK-3725,1 52123U 22029AM  23193.74014916 -.00000066  00000-0  13936-4 0  9997,2 52123  53.2171 107.8181 0001114  94.8682 265.2437 15.08850053 74357,6917.85,95.437,540.485,538.944,0.0
52123.0,STARLINK-3725,PAYLOAD,2023-07-13 01:42:43,15.0885908,0.0001108,53.2172,106.3311,94.5035,265.6083,1.9513e-05,2.3e-07,0.0,0 STARLINK-3725,1 52123U 22029AM  23194.07134169  .00000023  00000-0  19513-4 0  9996,2 52123  53.2172 106.3311 0001108  94.5035 265.6083 15.08859080 74405,6917.822,95.436,540.454,538.921,0.0
52123.0,STARLINK-3725,PAYLOAD,2023-07-13 23:58:08,15.08839953,0.0001264,53.2172,102.1678,87.2998,272.8139,6.7711e-05,7.9e-06,0.0,0 STARLINK-3725,1 52123U 22029AM  23194.99871160  .00000790  00000-0  67711-4 0  9990,2 52123  53.2172 102.1678 0001264  87.2998 272.8139 15.08839953 74549,6917.881,95.438,540.62,538.871,0.0
52123.0,STARLINK-3725,PAYLOAD,2023-07-14 23:48:54,15.08850988,0.0001289,53.2169,97.7075,89.8336,270.2803,0.00013051,1.79e-05,0.0,0 STARLINK-3725,1 52123U 22029AM  23195.99230293  .00001790  00000-0  13051-3 0  9995,2 52123  53.2169  97.7075 0001289  89.8336 270.2803 15.08850988 74693,6917.847,95.437,540.604,538.82,0.0
52123.0,STARLINK-3725,PAYLOAD,2023-07-16 02:50:28,15.08840714,0.0001355,53.2168,92.6516,83.276,276.8386,0.00011983,1.62e-05,0.0,0 STARLINK-3725,1 52123U 22029AM  23197.11839073  .00001620  00000-0  11983-3 0  9996,2 52123  53.2168  92.6516 0001355  83.2760 276.8386 15.08840714 74862,6917.878,95.438,540.681,538.806,0.0
52123.0,STARLINK-3725,PAYLOAD,2023-07-17 21:45:53,15.08845396,0.0001371,53.2172,84.6218,84.503,275.6119,0.00016692,2.37e-05,0.0,0 STARLINK-3725,1 52123U 22029AM  23198.90686819  .00002370  00000-0  16692-3 0  9997,2 52123  53.2172  84.6218 0001371  84.5030 275.6119 15.08845396 75132,6917.864,95.437,540.677,538.78,0.0
52123.0,STARLINK-3725,PAYLOAD,2023-07-18 12:04:21,15.08840883,0.0001261,53.2161,81.9499,69.591,290.5218,9.0953e-05,1.16e-05,0.0,0 STARLINK-3725,1 52123U 22029AM  23199.50302979  .00001160  00000-0  90953-4 0  9995,2 52123  53.2161  81.9499 0001261  69.5910 290.5218 15.08840883 75221,6917.878,95.437,540.615,538.87,0.0
52123.0,STARLINK-3725,PAYLOAD,2023-07-19 18:16:42,15.08834421,0.0001034,53.2174,76.298,96.1283,263.9827,-6.7635e-05,-1.364e-05,0.0,0 STARLINK-3725,1 52123U 22029AM  23200.76160052 -.00001364  00000-0 -67635-4 0  9999,2 52123  53.2174  76.2980 0001034  96.1283 263.9827 15.08834421 75416,6917.897,95.438,540.478,539.047,0.0
52123.0,STARLINK-3725,PAYLOAD,2023-07-20 19:42:51,15.08838778,9.99e-05,53.2174,71.5398,103.7094,256.4009,0.00014188,1.971e-05,0.0,0 STARLINK-3725,1 52123U 22029AM  23201.82143496  .00001971  00000-0  14188-3 0  9996,2 52123  53.2174  71.5398 0000999 103.7094 256.4009 15.08838778 75576,6917.884,95.438,540.44,539.058,0.0
52123.0,STARLINK-3725,PAYLOAD,2023-07-21 17:58:16,15.08833412,0.000101,53.2173,67.3765,101.1976,258.913,9.5729e-05,1.236e-05,0.0,0 STARLINK-3725,1 52123U 22029AM  23202.74880248  .00001236  00000-0  95729-4 0  9996,2 52123  53.2173  67.3765 0001010 101.1976 258.9130 15.08833412 75710,6917.901,95.438,540.464,539.067,0.0
52123.0,STARLINK-3725,PAYLOAD,2023-07-24 00:01:23,15.088299,8.94e-05,53.2179,57.2668,92.9986,267.1108,0.0001878,2.702e-05,0.0,0 STARLINK-3725,1 52123U 22029AM  23205.00096197  .00002702  00000-0  18780-3 0  9990,2 52123  53.2179  57.2668 0000894  92.9986 267.1108 15.08829900 76055,6917.911,95.438,540.395,539.158,0.0
52123.0,STARLINK-3725,PAYLOAD,2023-07-25 14:10:38,15.08833008,0.0001069,53.2179,50.1299,95.3957,264.7158,7.1825e-05,8.55e-06,0.0,0 STARLINK-3725,1 52123U 22029AM  23206.59072364  .00000855  00000-0  71825-4 0  9992,2 52123  53.2179  50.1299 0001069  95.3957 264.7158 15.08833008 76295,6917.902,95.438,540.506,539.027,0.0
52123.0,STARLINK-3725,PAYLOAD,2023-07-26 12:26:02,15.08840685,0.0001052,53.2175,45.9664,98.1121,261.999,8.8341e-05,1.118e-05,0.0,0 STARLINK-3725,1 52123U 22029AM  23207.51808118  .00001118  00000-0  88341-4 0  9993,2 52123  53.2175  45.9664 0001052  98.1121 261.9990 15.08840685 76433,6917.878,95.438,540.471,539.016,0.0
52123.0,STARLINK-3725,PAYLOAD,2023-07-26 15:36:48,15.08846194,0.0001045,53.2175,45.3716,103.6445,256.4663,3.1455e-05,2.13e-06,0.0,0 STARLINK-3725,1 52123U 22029AM  23207.65055913  .00000213  00000-0  31455-4 0  9994,2 52123  53.2175  45.3716 0001045 103.6445 256.4663 15.08846194 76457,6917.861,95.437,540.449,539.004,0.0
